[{"OBJECT_NAME":"STARLINK-35709","OBJECT_ID":"2025-244L","EPOCH":"2026-03-09T17:32:57.817536","MEAN_MOTION":15.30208054,"ECCENTRICITY":8.707e-5,"INCLINATION":53.1574,"RA_OF_ASC_NODE":229.8782,"ARG_OF_PERICENTER":74.3362,"MEAN_ANOMALY":285.7735,"EPHEMERIS_TYPE":0,"CLASSIFICATION_TYPE":"U","NORAD_CAT_ID":66216,"ELEMENT_SET_NO":999,"REV_AT_EPOCH":2166,"BSTAR":0.0010666771,"MEAN_MOTION_DOT":0.00031374,"MEAN_MOTION_DDOT":0},{"OBJECT_NAME":"PEGASUS DEB","OBJECT_ID":"1994-029AG","EPOCH":"2026-03-09T11:16:42.963744","MEAN_MOTION":15.37636263,"ECCENTRICITY":0.0031206,"INCLINATION":82.0362,"RA_OF_ASC_NODE":86.2933,"ARG_OF_PERICENTER":155.6019,"MEAN_ANOMALY":204.671,"EPHEMERIS_TYPE":0,"CLASSIFICATION_TYPE":"U","NORAD_CAT_ID":23986,"ELEMENT_SET_NO":999,"REV_AT_EPOCH":61542,"BSTAR":0.00061808813,"MEAN_MOTION_DOT":0.00023279,"MEAN_MOTION_DDOT":0}]
